$$SOE
2459580.500000000, A.D. 2022-Jan-01 00:00:00.0000, 8.710549721570586E+07, 4.176732879781168E+08, -1.426366847248706E+07,
2459587.500000000, A.D. 2022-Jan-08 00:00:00.0000, 7.844781521476825E+07, 4.209346182637578E+08, -1.527670282737815E+07,
2459594.500000000, A.D. 2022-Jan-15 00:00:00.0000, 6.974166452104723E+07, 4.239361232578075E+08, -1.628030791087601E+07,
2459601.500000000, A.D. 2022-Jan-22 00:00:00.0000, 6.099286858389480E+07, 4.266786571972629E+08, -1.727396853624710E+07,
2459608.500000000, A.D. 2022-Jan-29 00:00:00.0000, 5.220714299236684E+07, 4.291631106669272E+08, -1.825718172891548E+07,
2459615.500000000, A.D. 2022-Feb-05 00:00:00.0000, 4.339009960585064E+07, 4.313904068051866E+08, -1.922945579573298E+07,
2459622.500000000, A.D. 2022-Feb-12 00:00:00.0000, 3.454725267156038E+07, 4.333614967795836E+08, -2.019030971533322E+07,
2459629.500000000, A.D. 2022-Feb-19 00:00:00.0000, 2.568402561404426E+07, 4.350773568792844E+08, -2.113927253313616E+07,
2459636.500000000, A.D. 2022-Feb-26 00:00:00.0000, 1.680575719397670E+07, 4.365389864779116E+08, -2.207588269806376E+07,
2459643.500000000, A.D. 2022-Mar-05 00:00:00.0000, 7.917707202672312E+06, 4.377474062290894E+08, -2.299968740422502E+07,
2459650.500000000, A.D. 2022-Mar-12 00:00:00.0000, -9.749380785489079E+05, 4.387036564113306E+08, -2.391024196175927E+07,
2459657.500000000, A.D. 2022-Mar-19 00:00:00.0000, -9.867060575464392E+06, 4.394087954348416E+08, -2.480710919969532E+07,
2459664.500000000, A.D. 2022-Mar-26 00:00:00.0000, -1.875360524434567E+07, 4.398638984905905E+08, -2.568985890209278E+07,
2459671.500000000, A.D. 2022-Apr-02 00:00:00.0000, -2.762957494607316E+07, 4.400700562736066E+08, -2.655806728702587E+07,
2459678.500000000, A.D. 2022-Apr-09 00:00:00.0000, -3.649002509132754E+07, 4.400283737746266E+08, -2.741131655178478E+07,
2459685.500000000, A.D. 2022-Apr-16 00:00:00.0000, -4.533005769246344E+07, 4.397399697853767E+08, -2.824919446255603E+07,
2459692.500000000, A.D. 2022-Apr-23 00:00:00.0000, -5.414481608300697E+07, 4.392059781951940E+08, -2.907129378284517E+07,
2459699.500000000, A.D. 2022-Apr-30 00:00:00.0000, -6.292948216548012E+07, 4.384275488257275E+08, -2.987721155155498E+07,
2459706.500000000, A.D. 2022-May-07 00:00:00.0000, -7.167927311832002E+07, 4.374058458208009E+08, -3.066654865121165E+07,
2459713.500000000, A.D. 2022-May-14 00:00:00.0000, -8.038943616763298E+07, 4.361420466265962E+08, -3.143890954472999E+07,
2459720.500000000, A.D. 2022-May-21 00:00:00.0000, -8.905524344692124E+07, 4.346373423191383E+08, -3.219390193202473E+07,
2459727.500000000, A.D. 2022-May-28 00:00:00.0000, -9.767198741581069E+07, 4.328929383165845E+08, -3.293113635999081E+07,
2459734.500000000, A.D. 2022-Jun-04 00:00:00.0000, -1.062349765540808E+08, 4.309100551607157E+08, -3.365022583590098E+07,
2459741.500000000, A.D. 2022-Jun-11 00:00:00.0000, -1.147395311800500E+08, 4.286899293685324E+08, -3.435078545652799E+07,
2459748.500000000, A.D. 2022-Jun-18 00:00:00.0000, -1.231809793484589E+08, 4.262338143670399E+08, -3.503243205475886E+07,
2459755.500000000, A.D. 2022-Jun-25 00:00:00.0000, -1.315546527924156E+08, 4.235429814787229E+08, -3.569478386845987E+07,
2459762.500000000, A.D. 2022-Jul-02 00:00:00.0000, -1.398558827696202E+08, 4.206187208934112E+08, -3.633746024863072E+07,
2459769.500000000, A.D. 2022-Jul-09 00:00:00.0000, -1.480799954173402E+08, 4.174623428057685E+08, -3.696008142759633E+07,
2459776.500000000, A.D. 2022-Jul-16 00:00:00.0000, -1.562223066668666E+08, 4.140751798049891E+08, -3.756226825332446E+07,
2459783.500000000, A.D. 2022-Jul-23 00:00:00.0000, -1.642781189110274E+08, 4.104585906003522E+08, -3.814364168190825E+07,
2459790.500000000, A.D. 2022-Jul-30 00:00:00.0000, -1.722427193339077E+08, 4.066139617331095E+08, -3.870382230952121E+07,
2459797.500000000, A.D. 2022-Aug-06 00:00:00.0000, -1.801113762999035E+08, 4.025427079258391E+08, -3.924243021999228E+07,
2459804.500000000, A.D. 2022-Aug-13 00:00:00.0000, -1.878793346232476E+08, 3.982462738323098E+08, -3.975908484766780E+07,
2459811.500000000, A.D. 2022-Aug-20 00:00:00.0000, -1.955418112821625E+08, 3.937261366943697E+08, -4.025340475315067E+07,
2459818.500000000, A.D. 2022-Aug-27 00:00:00.0000, -2.030939915033914E+08, 3.889838091869831E+08, -4.072500737720522E+07,
2459825.500000000, A.D. 2022-Sep-03 00:00:00.0000, -2.105310249641415E+08, 3.840208423479523E+08, -4.117350880397767E+07,
2459832.500000000, A.D. 2022-Sep-10 00:00:00.0000, -2.178480220180456E+08, 3.788388286237987E+08, -4.159852353923881E+07,
2459839.500000000, A.D. 2022-Sep-17 00:00:00.0000, -2.250400499146757E+08, 3.734394050394118E+08, -4.199966430630273E+07,
2459846.500000000, A.D. 2022-Sep-24 00:00:00.0000, -2.321021289527644E+08, 3.678242564529809E+08, -4.237654186987396E+07,
2459853.500000000, A.D. 2022-Oct-01 00:00:00.0000, -2.390292283279746E+08, 3.619951188893241E+08, -4.272876491288085E+07,
2459860.500000000, A.D. 2022-Oct-08 00:00:00.0000, -2.458162612683000E+08, 3.559537834908757E+08, -4.305593996251954E+07,
2459867.500000000, A.D. 2022-Oct-15 00:00:00.0000, -2.524580803896866E+08, 3.497021023041266E+08, -4.335767118381272E+07,
2459874.500000000, A.D. 2022-Oct-22 00:00:00.0000, -2.589494754539342E+08, 3.432419942381727E+08, -4.363355998019223E+07,
2459881.500000000, A.D. 2022-Oct-29 00:00:00.0000, -2.652851710294543E+08, 3.365754486206979E+08, -4.388320484318945E+07,
2459888.500000000, A.D. 2022-Nov-05 00:00:00.0000, -2.714598219576685E+08, 3.297045291097403E+08, -4.410620142045119E+07,
2459895.500000000, A.D. 2022-Nov-12 00:00:00.0000, -2.774680085964222E+08, 3.226313792513314E+08, -4.430214252053620E+07,
2459902.500000000, A.D. 2022-Nov-19 00:00:00.0000, -2.833042325654493E+08, 3.153582287548471E+08, -4.447061806893787E+07,
2459909.500000000, A.D. 2022-Nov-26 00:00:00.0000, -2.889629127378823E+08, 3.078874001148605E+08, -4.461121507395120E+07,
2459916.500000000, A.D. 2022-Dec-03 00:00:00.0000, -2.944383813202931E+08, 3.002213155956671E+08, -4.472351762084639E+07,
2459923.500000000, A.D. 2022-Dec-10 00:00:00.0000, -2.997248799865592E+08, 2.923625046272334E+08, -4.480710689966212E+07,
2459930.500000000, A.D. 2022-Dec-17 00:00:00.0000, -3.048165560539437E+08, 2.843136116200474E+08, -4.486156127394513E+07,
2459937.500000000, A.D. 2022-Dec-24 00:00:00.0000, -3.097074586075907E+08, 2.760774041678608E+08, -4.488645640920950E+07,
2459944.500000000, A.D. 2022-Dec-31 00:00:00.0000, -3.143915342342043E+08, 2.676567817829535E+08, -4.488136548884593E+07,
2459951.500000000, A.D. 2023-Jan-07 00:00:00.0000, -3.188626222642080E+08, 2.590547861657141E+08, -4.484585945426736E+07,
2459958.500000000, A.D. 2023-Jan-14 00:00:00.0000, -3.231144515166044E+08, 2.502746135481741E+08, -4.477950705341163E+07,
2459965.500000000, A.D. 2023-Jan-21 00:00:00.0000, -3.271406392222957E+08, 2.413196259867664E+08, -4.468187490382871E+07,
2459972.500000000, A.D. 2023-Jan-28 00:00:00.0000, -3.309346884890984E+08, 2.321933614576665E+08, -4.455252792809969E+07,
2459979.500000000, A.D. 2023-Feb-04 00:00:00.0000, -3.344899845550276E+08, 2.228995458304731E+08, -4.439102990059894E+07,
2459986.500000000, A.D. 2023-Feb-11 00:00:00.0000, -3.377997916728992E+08, 2.134421065805970E+08, -4.419694396452018E+07,
2459993.500000000, A.D. 2023-Feb-18 00:00:00.0000, -3.408572507417633E+08, 2.038251874757301E+08, -4.396983318897615E+07,
2460000.500000000, A.D. 2023-Feb-25 00:00:00.0000, -3.436553774802259E+08, 1.940531641338218E+08, -4.370926121180733E+07,
2460007.500000000, A.D. 2023-Mar-04 00:00:00.0000, -3.461870611064402E+08, 1.841306605314385E+08, -4.341479298500764E+07,
2460014.500000000, A.D. 2023-Mar-11 00:00:00.0000, -3.484450635742579E+08, 1.740625665247970E+08, -4.308599563570463E+07,
2460021.500000000, A.D. 2023-Mar-18 00:00:00.0000, -3.504220194090844E+08, 1.638540563979727E+08, -4.272243946297392E+07,
2460028.500000000, A.D. 2023-Mar-25 00:00:00.0000, -3.521104360441603E+08, 1.535106084573308E+08, -4.232369910657623E+07,
2460035.500000000, A.D. 2023-Apr-01 00:00:00.0000, -3.535026943508976E+08, 1.430380261334323E+08, -4.188935490958411E+07,
2460042.500000000, A.D. 2023-Apr-08 00:00:00.0000, -3.545910501125203E+08, 1.324424618833076E+08, -4.141899433516733E+07,
2460049.500000000, A.D. 2023-Apr-15 00:00:00.0000, -3.553676389313697E+08, 1.217304428543396E+08, -4.091221333272842E+07,
2460056.500000000, A.D. 2023-Apr-22 00:00:00.0000, -3.558244829337146E+08, 1.109088953259215E+08, -4.036861809006326E+07,
2460063.500000000, A.D. 2023-Apr-29 00:00:00.0000, -3.559534967248949E+08, 9.998517024570364E+07, -3.978782725960279E+07,
2460070.500000000, A.D. 2023-May-06 00:00:00.0000, -3.557464945646507E+08, 8.896707169463840E+07, -3.916947437405189E+07,
2460077.500000000, A.D. 2023-May-13 00:00:00.0000, -3.551951999784054E+08, 7.786288743181509E+07, -3.851321046018608E+07,
2460084.500000000, A.D. 2023-May-20 00:00:00.0000, -3.542912578355712E+08, 6.668142106120016E+07, -3.781870693909589E+07,
2460091.500000000, A.D. 2023-May-27 00:00:00.0000, -3.530262489958039E+08, 5.543202580393726E+07, -3.708565886096077E+07,
2460098.500000000, A.D. 2023-Jun-03 00:00:00.0000, -3.513917077977173E+08, 4.412463989121836E+07, -3.631378850875416E+07,
2460105.500000000, A.D. 2023-Jun-10 00:00:00.0000, -3.493791427402464E+08, 3.276982352813312E+07, -3.550284940956759E+07,
2460112.500000000, A.D. 2023-Jun-17 00:00:00.0000, -3.469800606821124E+08, 2.137879730382749E+07, -3.465263080489671E+07,
2460119.500000000, A.D. 2023-Jun-24 00:00:00.0000, -3.441859946918655E+08, 9.963482001196768E+06, -3.376296264399835E+07,
2460126.500000000, A.D. 2023-Jul-01 00:00:00.0000, -3.409885357852715E+08, -1.463459518145453E+06, -3.283372109512701E+07,
2460133.500000000, A.D. 2023-Jul-08 00:00:00.0000, -3.373793707532622E+08, -1.288857774706062E+07, -3.186483439314013E+07,
2460140.500000000, A.D. 2023-Jul-15 00:00:00.0000, -3.333503279302103E+08, -2.429759240504885E+07, -3.085628917749266E+07,
$$EOE